start=new Date('2022-09-25T00:00:00.000Z').valueOf();
sats=[{"DECAY_DATE":null,"REF_FRAME":"TEME","INCLINATION":"53.0576","COUNTRY_CODE":"US","OBJECT_ID":"2020-055AW","ELEMENT_SET_NO":"999","MEAN_MOTION_DDOT":"0.0000000000000","APOAPSIS":"548.283","RCS_SIZE":"LARGE","EPHEMERIS_TYPE":"0","NORAD_CAT_ID":"46071","GP_ID":"213401809","RA_OF_ASC_NODE":"1.5317","PERIOD":"95.592","CENTER_NAME":"EARTH","ARG_OF_PERICENTER":"61.4338","MEAN_ELEMENT_THEORY":"SGP4","MEAN_ANOMALY":"298.6804","PERIAPSIS":"546.172","SITE":"AFETR","BSTAR":"0.00007680600000","CLASSIFICATION_TYPE":"U","MEAN_MOTION":"15.06395491","OBJECT_TYPE":"PAYLOAD","LAUNCH_DATE":"2020-08-07","EPOCH":"2022-09-24T18:48:58.558176","TLE_LINE1":"1 46071U 20055AW  22267.78401109  .00000863  00000-0  76806-4 0  9997","OBJECT_NAME":"STARLINK-1538","REV_AT_EPOCH":"11911","MEAN_MOTION_DOT":"0.00000863","SEMIMAJOR_AXIS":"6925.362","TIME_SYSTEM":"UTC","FILE":"3582616","TLE_LINE2":"2 46071  53.0576   1.5317 0001524  61.4338 298.6804 15.06395491119113","ECCENTRICITY":"0.00015240"},{"PERIAPSIS":"546.128","PERIOD":"95.591","CENTER_NAME":"EARTH","ARG_OF_PERICENTER":"70.7621","MEAN_ANOMALY":"289.3530","MEAN_ELEMENT_THEORY":"SGP4","SITE":"AFETR","MEAN_MOTION":"15.06415081","OBJECT_TYPE":"PAYLOAD","BSTAR":"0.00023047000000","CLASSIFICATION_TYPE":"U","EPOCH":"2022-09-24T13:02:35.528928","TLE_LINE1":"1 46072U 20055AX  22267.54346677  .00003154  00000-0  23047-3 0  9994","OBJECT_NAME":"STARLINK-1539","LAUNCH_DATE":"2020-08-07","REV_AT_EPOCH":"11906","MEAN_MOTION_DOT":"0.00003154","SEMIMAJOR_AXIS":"6925.302","TIME_SYSTEM":"UTC","ECCENTRICITY":"0.00015010","TLE_LINE2":"2 46072  53.0549   2.6272 0001501  70.7621 289.3530 15.06415081119064","FILE":"3582188","DECAY_DATE":null,"REF_FRAME":"TEME","COUNTRY_CODE":"US","INCLINATION":"53.0549","APOAPSIS":"548.207","MEAN_MOTION_DDOT":"0.0000000000000","OBJECT_ID":"2020-055AX","ELEMENT_SET_NO":"999","RCS_SIZE":"LARGE","EPHEMERIS_TYPE":"0","GP_ID":"213367160","NORAD_CAT_ID":"46072","RA_OF_ASC_NODE":"2.6272"},{"MEAN_MOTION_DDOT":"0.0000000000000","APOAPSIS":"548.249","ELEMENT_SET_NO":"999","OBJECT_ID":"2020-055AY","COUNTRY_CODE":"US","INCLINATION":"53.0550","REF_FRAME":"TEME","DECAY_DATE":null,"RA_OF_ASC_NODE":"1.6538","GP_ID":"213402811","NORAD_CAT_ID":"46073","EPHEMERIS_TYPE":"0","RCS_SIZE":"LARGE","OBJECT_NAME":"STARLINK-1542","EPOCH":"2022-09-24T18:11:47.886432","TLE_LINE1":"1 46073U 20055AY  22267.75819313  .00000816  00000-0  73660-4 0  9999","LAUNCH_DATE":"2020-08-07","OBJECT_TYPE":"PAYLOAD","MEAN_MOTION":"15.06413904","CLASSIFICATION_TYPE":"U","BSTAR":"0.00007366000000","SITE":"AFETR","PERIAPSIS":"546.093","PERIOD":"95.591","MEAN_ELEMENT_THEORY":"SGP4","ARG_OF_PERICENTER":"60.0581","CENTER_NAME":"EARTH","MEAN_ANOMALY":"300.0563","ECCENTRICITY":"0.00015560","TLE_LINE2":"2 46073  53.0550   1.6538 0001556  60.0581 300.0563 15.06413904119102","FILE":"3582616","TIME_SYSTEM":"UTC","SEMIMAJOR_AXIS":"6925.306","MEAN_MOTION_DOT":"0.00000816","REV_AT_EPOCH":"11910"},{"MEAN_MOTION_DDOT":"0.0000000000000","APOAPSIS":"548.098","OBJECT_ID":"2020-055AZ","ELEMENT_SET_NO":"999","COUNTRY_CODE":"US","INCLINATION":"53.0565","REF_FRAME":"TEME","DECAY_DATE":null,"RA_OF_ASC_NODE":"2.8979","GP_ID":"213368161","NORAD_CAT_ID":"46074","RCS_SIZE":"LARGE","EPHEMERIS_TYPE":"0","EPOCH":"2022-09-24T11:28:24.930048","TLE_LINE1":"1 46074U 20055AZ  22267.47806632  .00003379  00000-0  24564-3 0  9994","OBJECT_NAME":"STARLINK-1549","LAUNCH_DATE":"2020-08-07","MEAN_MOTION":"15.06401994","OBJECT_TYPE":"PAYLOAD","BSTAR":"0.00024564000000","CLASSIFICATION_TYPE":"U","SITE":"AFETR","PERIAPSIS":"546.317","PERIOD":"95.592","CENTER_NAME":"EARTH","ARG_OF_PERICENTER":"81.5389","MEAN_ELEMENT_THEORY":"SGP4","MEAN_ANOMALY":"278.5745","ECCENTRICITY":"0.00012860","FILE":"3582188","TLE_LINE2":"2 46074  53.0565   2.8979 0001286  81.5389 278.5745 15.06401994119056","SEMIMAJOR_AXIS":"6925.342","TIME_SYSTEM":"UTC","REV_AT_EPOCH":"11905","MEAN_MOTION_DOT":"0.00003379"},{"PERIAPSIS":"546.247","PERIOD":"95.592","ARG_OF_PERICENTER":"61.5607","CENTER_NAME":"EARTH","MEAN_ANOMALY":"298.5524","MEAN_ELEMENT_THEORY":"SGP4","SITE":"AFETR","MEAN_MOTION":"15.06397804","OBJECT_TYPE":"PAYLOAD","BSTAR":"0.00012530000000","CLASSIFICATION_TYPE":"U","EPOCH":"2022-09-24T16:52:11.723808","TLE_LINE1":"1 46075U 20055BA  22267.70291347  .00001585  00000-0  12530-3 0  9999","OBJECT_NAME":"STARLINK-1551","LAUNCH_DATE":"2020-08-07","REV_AT_EPOCH":"11909","MEAN_MOTION_DOT":"0.00001585","SEMIMAJOR_AXIS":"6925.355","TIME_SYSTEM":"UTC","ECCENTRICITY":"0.00014050","FILE":"3582616","TLE_LINE2":"2 46075  53.0580   1.8910 0001405  61.5607 298.5524 15.06397804119097","DECAY_DATE":null,"REF_FRAME":"TEME","COUNTRY_CODE":"US","INCLINATION":"53.0580","APOAPSIS":"548.193","MEAN_MOTION_DDOT":"0.0000000000000","OBJECT_ID":"2020-055BA","ELEMENT_SET_NO":"999","RCS_SIZE":"LARGE","EPHEMERIS_TYPE":"0","GP_ID":"213401310","NORAD_CAT_ID":"46075","RA_OF_ASC_NODE":"1.8910"},{"NORAD_CAT_ID":"46076","GP_ID":"213366662","RCS_SIZE":"LARGE","EPHEMERIS_TYPE":"0","RA_OF_ASC_NODE":"2.6879","DECAY_DATE":null,"REF_FRAME":"TEME","OBJECT_ID":"2020-055BB","ELEMENT_SET_NO":"999","MEAN_MOTION_DDOT":"0.0000000000000","APOAPSIS":"548.308","INCLINATION":"53.0568","COUNTRY_CODE":"US","REV_AT_EPOCH":"11905","MEAN_MOTION_DOT":"0.00002414","TLE_LINE2":"2 46076  53.0568   2.6879 0001598  58.5981 301.5164 15.06403942119053","FILE":"3582188","ECCENTRICITY":"0.00015980","SEMIMAJOR_AXIS":"6925.336","TIME_SYSTEM":"UTC","SITE":"AFETR","ARG_OF_PERICENTER":"58.5981","PERIOD":"95.592","MEAN_ELEMENT_THEORY":"SGP4","CENTER_NAME":"EARTH","MEAN_ANOMALY":"301.5164","PERIAPSIS":"546.095","LAUNCH_DATE":"2020-08-07","EPOCH":"2022-09-24T12:42:43.360128","TLE_LINE1":"1 46076U 20055BB  22267.52966852  .00002414  00000-0  18087-3 0  9995","OBJECT_NAME":"STARLINK-1552","BSTAR":"0.00018087000000","CLASSIFICATION_TYPE":"U","MEAN_MOTION":"15.06403942","OBJECT_TYPE":"PAYLOAD"},{"SITE":"AFETR","PERIAPSIS":"546.586","MEAN_ELEMENT_THEORY":"SGP4","PERIOD":"95.592","ARG_OF_PERICENTER":"62.3756","CENTER_NAME":"EARTH","MEAN_ANOMALY":"297.7321","OBJECT_NAME":"STARLINK-1559","EPOCH":"2022-09-24T18:38:20.506272","TLE_LINE1":"1 46077U 20055BC  22267.77662623  .00002750  00000-0  20340-3 0  9990","LAUNCH_DATE":"2020-08-07","OBJECT_TYPE":"PAYLOAD","MEAN_MOTION":"15.06409387","CLASSIFICATION_TYPE":"U","BSTAR":"0.00020340000000","MEAN_MOTION_DOT":"0.00002750","REV_AT_EPOCH":"11906","ECCENTRICITY":"0.00008650","FILE":"3582616","TLE_LINE2":"2 46077  53.0561   1.5746 0000865  62.3756 297.7321 15.06409387119068","TIME_SYSTEM":"UTC","SEMIMAJOR_AXIS":"6925.320","REF_FRAME":"TEME","DECAY_DATE":null,"MEAN_MOTION_DDOT":"0.0000000000000","APOAPSIS":"547.784","ELEMENT_SET_NO":"999","OBJECT_ID":"2020-055BC","COUNTRY_CODE":"US","INCLINATION":"53.0561","GP_ID":"213402311","NORAD_CAT_ID":"46077","EPHEMERIS_TYPE":"0","RCS_SIZE":"LARGE","RA_OF_ASC_NODE":"1.5746"},{"REV_AT_EPOCH":"11907","MEAN_MOTION_DOT":"0.00002192","SEMIMAJOR_AXIS":"6925.324","TIME_SYSTEM":"UTC","ECCENTRICITY":"0.00017530","FILE":"3582616","TLE_LINE2":"2 46078  53.0559   1.6684 0001753  53.4395 306.6756 15.06408097119075","PERIAPSIS":"545.975","PERIOD":"95.592","ARG_OF_PERICENTER":"53.4395","CENTER_NAME":"EARTH","MEAN_ELEMENT_THEORY":"SGP4","MEAN_ANOMALY":"306.6756","SITE":"AFETR","MEAN_MOTION":"15.06408097","OBJECT_TYPE":"PAYLOAD","BSTAR":"0.00016600000000","CLASSIFICATION_TYPE":"U","EPOCH":"2022-09-24T18:06:29.633760","TLE_LINE1":"1 46078U 20055BD  22267.75450965  .00002192  00000-0  16600-3 0  9997","OBJECT_NAME":"STARLINK-1563","LAUNCH_DATE":"2020-08-07","RCS_SIZE":"LARGE","EPHEMERIS_TYPE":"0","GP_ID":"213401561","NORAD_CAT_ID":"46078","RA_OF_ASC_NODE":"1.6684","REF_FRAME":"TEME","DECAY_DATE":null,"COUNTRY_CODE":"US","INCLINATION":"53.0559","MEAN_MOTION_DDOT":"0.0000000000000","APOAPSIS":"548.403","OBJECT_ID":"2020-055BD","ELEMENT_SET_NO":"999"},{"CLASSIFICATION_TYPE":"U","BSTAR":"0.00095964000000","OBJECT_TYPE":"PAYLOAD","MEAN_MOTION":"15.06413119","LAUNCH_DATE":"2020-08-07","OBJECT_NAME":"STARLINK-1566","EPOCH":"2022-09-24T16:20:20.968800","TLE_LINE1":"1 46079U 20055BE  22267.68079825  .00014046  00000-0  95964-3 0  9993","PERIOD":"95.591","ARG_OF_PERICENTER":"76.0194","MEAN_ELEMENT_THEORY":"SGP4","CENTER_NAME":"EARTH","MEAN_ANOMALY":"284.0959","PERIAPSIS":"546.151","SITE":"AFETR","TIME_SYSTEM":"UTC","SEMIMAJOR_AXIS":"6925.308","FILE":"3582616","TLE_LINE2":"2 46079  53.0562   1.9983 0001476  76.0194 284.0959 15.06413119119092","ECCENTRICITY":"0.00014760","MEAN_MOTION_DOT":"0.00014046","REV_AT_EPOCH":"11909","INCLINATION":"53.0562","COUNTRY_CODE":"US","ELEMENT_SET_NO":"999","OBJECT_ID":"2020-055BE","APOAPSIS":"548.196","MEAN_MOTION_DDOT":"0.0000000000000","REF_FRAME":"TEME","DECAY_DATE":null,"RA_OF_ASC_NODE":"1.9983","EPHEMERIS_TYPE":"0","RCS_SIZE":"LARGE","NORAD_CAT_ID":"46079","GP_ID":"213401810"},{"MEAN_ELEMENT_THEORY":"SGP4","PERIOD":"95.592","CENTER_NAME":"EARTH","MEAN_ANOMALY":"317.2687","ARG_OF_PERICENTER":"42.8425","PERIAPSIS":"546.095","SITE":"AFETR","BSTAR":"0.00020345000000","CLASSIFICATION_TYPE":"U","MEAN_MOTION":"15.06409898","OBJECT_TYPE":"PAYLOAD","LAUNCH_DATE":"2020-08-07","EPOCH":"2022-09-24T16:56:07.403136","TLE_LINE1":"1 46080U 20055BF  22267.70564124  .00002751  00000-0  20345-3 0  9990","OBJECT_NAME":"STARLINK-1568","REV_AT_EPOCH":"11907","MEAN_MOTION_DOT":"0.00002751","SEMIMAJOR_AXIS":"6925.318","TIME_SYSTEM":"UTC","TLE_LINE2":"2 46080  53.0566   1.8738 0001571  42.8425 317.2687 15.06409898119073","FILE":"3582616","ECCENTRICITY":"0.00015710","REF_FRAME":"TEME","DECAY_DATE":null,"INCLINATION":"53.0566","COUNTRY_CODE":"US","ELEMENT_SET_NO":"999","OBJECT_ID":"2020-055BF","MEAN_MOTION_DDOT":"0.0000000000000","APOAPSIS":"548.271","RCS_SIZE":"LARGE","EPHEMERIS_TYPE":"0","NORAD_CAT_ID":"46080","GP_ID":"213402061","RA_OF_ASC_NODE":"1.8738"}];
